{
  "norad_id": 61182,
  "name": "GSAT0232 (GALILEO 32)",
  "history": [
    {
      "epoch": "2026-03-30T08:18:50.211936Z",
      "apogee_km": 23234.07615244091,
      "perigee_km": 23210.212405673738,
      "latitude_deg": -1.827940884287731,
      "longitude_deg": 92.27761952517395,
      "height_km": 23211.762442795585,
      "semi_major_axis_km": 29600.281279057323,
      "eccentricity": 0.0004031,
      "inclination_deg": 55.2125,
      "raan_deg": 223.4742,
      "arg_perigee_deg": 205.9815,
      "mean_anomaly_deg": 336.1496,
      "mean_motion_rev_day": 1.70474335
    }
  ]
}